[{"OBJECT_NAME":"STARLINK-1733","OBJECT_ID":"2020-070AJ","EPOCH":"2026-03-10T00:00:02.999808","MEAN_MOTION":15.74070769,"ECCENTRICITY":0.00019603,"INCLINATION":53.0418,"RA_OF_ASC_NODE":105.8439,"ARG_OF_PERICENTER":358.1851,"MEAN_ANOMALY":270.2405,"EPHEMERIS_TYPE":0,"CLASSIFICATION_TYPE":"U","NORAD_CAT_ID":46564,"ELEMENT_SET_NO":999,"REV_AT_EPOCH":596,"BSTAR":0.0010340128,"MEAN_MOTION_DOT":0.0015282,"MEAN_MOTION_DDOT":0},{"OBJECT_NAME":"STARLINK-11547 [DTC]","OBJECT_ID":"2025-008A","EPOCH":"2026-03-08T13:21:02.443392","MEAN_MOTION":15.70875727,"ECCENTRICITY":0.00014301,"INCLINATION":43.0001,"RA_OF_ASC_NODE":133.2076,"ARG_OF_PERICENTER":267.7738,"MEAN_ANOMALY":92.2966,"EPHEMERIS_TYPE":0,"CLASSIFICATION_TYPE":"U","NORAD_CAT_ID":62587,"ELEMENT_SET_NO":999,"REV_AT_EPOCH":6593,"BSTAR":0.0024799242,"MEAN_MOTION_DOT":0.00331273,"MEAN_MOTION_DDOT":0}]
